start=new Date('2023-01-05T00:00:00.000Z').valueOf();
sats=[{"ECCENTRICITY":"0.00014580","OBJECT_NAME":"STARLINK-1240","OBJECT_TYPE":"PAYLOAD","ARG_OF_PERICENTER":"93.7599","SEMIMAJOR_AXIS":"6925.362","APOAPSIS":"548.237","TLE_LINE1":"1 45194U 20012S   23004.28832934  .00001055  00000-0  89744-4 0  9993","RCS_SIZE":"LARGE","DECAY_DATE":null,"CLASSIFICATION_TYPE":"U","ELEMENT_SET_NO":"999","NORAD_CAT_ID":"45194","BSTAR":"0.00008974400000","EPHEMERIS_TYPE":"0","MEAN_ANOMALY":"266.3557","PERIOD":"95.592","MEAN_MOTION_DOT":"0.00001055","COUNTRY_CODE":"US","REF_FRAME":"TEME","RA_OF_ASC_NODE":"215.8633","REV_AT_EPOCH":"15983","GP_ID":"222155991","CENTER_NAME":"EARTH","SITE":"AFETR","TLE_LINE2":"2 45194  53.0524 215.8633 0001458  93.7599 266.3557 15.06395685159830","MEAN_MOTION":"15.06395685","MEAN_MOTION_DDOT":"0.0000000000000","FILE":"3731823","OBJECT_ID":"2020-012S","PERIAPSIS":"546.217","LAUNCH_DATE":"2020-02-17","EPOCH":"2023-01-04T06:55:11.654976","INCLINATION":"53.0524","MEAN_ELEMENT_THEORY":"SGP4","TIME_SYSTEM":"UTC"},{"LAUNCH_DATE":"2020-02-17","EPOCH":"2023-01-04T19:40:41.530368","INCLINATION":"53.0486","MEAN_ELEMENT_THEORY":"SGP4","TIME_SYSTEM":"UTC","OBJECT_ID":"2020-012T","PERIAPSIS":"502.677","MEAN_MOTION":"15.20327105","FILE":"3732026","MEAN_MOTION_DDOT":"0.0000000000000","SITE":"AFETR","TLE_LINE2":"2 45195  53.0486 200.9209 0003164 134.7722 225.3531 15.20327105159253","GP_ID":"222193315","CENTER_NAME":"EARTH","REF_FRAME":"TEME","REV_AT_EPOCH":"15925","RA_OF_ASC_NODE":"200.9209","COUNTRY_CODE":"US","PERIOD":"94.716","MEAN_MOTION_DOT":"0.00050128","EPHEMERIS_TYPE":"0","BSTAR":"0.00227550000000","MEAN_ANOMALY":"225.3531","ELEMENT_SET_NO":"999","NORAD_CAT_ID":"45195","DECAY_DATE":null,"CLASSIFICATION_TYPE":"U","RCS_SIZE":"LARGE","APOAPSIS":"507.033","TLE_LINE1":"1 45195U 20012T   23004.81992512  .00050128  00000-0  22755-2 0  9994","OBJECT_TYPE":"PAYLOAD","ARG_OF_PERICENTER":"134.7722","SEMIMAJOR_AXIS":"6882.990","ECCENTRICITY":"0.00031640","OBJECT_NAME":"STARLINK-1241"},{"ARG_OF_PERICENTER":"72.9382","SEMIMAJOR_AXIS":"6925.319","OBJECT_TYPE":"PAYLOAD","ECCENTRICITY":"0.00014480","OBJECT_NAME":"STARLINK-1244","RCS_SIZE":"LARGE","APOAPSIS":"548.187","TLE_LINE1":"1 45196U 20012U   23004.86701784  .00003450  00000-0  25033-3 0  9998","ELEMENT_SET_NO":"999","NORAD_CAT_ID":"45196","DECAY_DATE":null,"CLASSIFICATION_TYPE":"U","MEAN_MOTION_DOT":"0.00003450","PERIOD":"95.592","MEAN_ANOMALY":"287.1766","EPHEMERIS_TYPE":"0","BSTAR":"0.00025033000000","REF_FRAME":"TEME","REV_AT_EPOCH":"15912","RA_OF_ASC_NODE":"213.2763","COUNTRY_CODE":"US","SITE":"AFETR","TLE_LINE2":"2 45196  53.0525 213.2763 0001448  72.9382 287.1766 15.06409620159127","GP_ID":"222194728","CENTER_NAME":"EARTH","PERIAPSIS":"546.181","OBJECT_ID":"2020-012U","FILE":"3732086","MEAN_MOTION_DDOT":"0.0000000000000","MEAN_MOTION":"15.06409620","TIME_SYSTEM":"UTC","LAUNCH_DATE":"2020-02-17","INCLINATION":"53.0525","MEAN_ELEMENT_THEORY":"SGP4","EPOCH":"2023-01-04T20:48:30.341376"},{"RCS_SIZE":"LARGE","APOAPSIS":"547.976","TLE_LINE1":"1 45197U 20012V   23004.85595141  .00011673  00000-0  80046-3 0  9997","OBJECT_TYPE":"PAYLOAD","SEMIMAJOR_AXIS":"6925.239","ARG_OF_PERICENTER":"97.8301","ECCENTRICITY":"0.00012590","OBJECT_NAME":"STARLINK-1269","PERIOD":"95.590","MEAN_MOTION_DOT":"0.00011673","BSTAR":"0.00080046000000","EPHEMERIS_TYPE":"0","MEAN_ANOMALY":"262.2831","ELEMENT_SET_NO":"999","NORAD_CAT_ID":"45197","DECAY_DATE":null,"CLASSIFICATION_TYPE":"U","SITE":"AFETR","TLE_LINE2":"2 45197  53.0512 213.3179 0001259  97.8301 262.2831 15.06435732159112","GP_ID":"222193310","CENTER_NAME":"EARTH","REF_FRAME":"TEME","REV_AT_EPOCH":"15911","RA_OF_ASC_NODE":"213.3179","COUNTRY_CODE":"US","INCLINATION":"53.0512","LAUNCH_DATE":"2020-02-17","EPOCH":"2023-01-04T20:32:34.201824","MEAN_ELEMENT_THEORY":"SGP4","TIME_SYSTEM":"UTC","OBJECT_ID":"2020-012V","PERIAPSIS":"546.232","MEAN_MOTION":"15.06435732","FILE":"3732026","MEAN_MOTION_DDOT":"0.0000000000000"},{"INCLINATION":"53.0524","LAUNCH_DATE":"2020-02-17","EPOCH":"2023-01-04T18:43:45.504192","MEAN_ELEMENT_THEORY":"SGP4","TIME_SYSTEM":"UTC","OBJECT_ID":"2020-012W","PERIAPSIS":"546.106","MEAN_MOTION":"15.06410166","MEAN_MOTION_DDOT":"0.0000000000000","FILE":"3732048","SITE":"AFETR","TLE_LINE2":"2 45198  53.0524 193.6666 0001555  79.5981 280.5183 15.06410166159350","GP_ID":"222193842","CENTER_NAME":"EARTH","REF_FRAME":"TEME","REV_AT_EPOCH":"15935","RA_OF_ASC_NODE":"193.6666","COUNTRY_CODE":"US","PERIOD":"95.591","MEAN_MOTION_DOT":"0.00003843","BSTAR":"0.00027668000000","EPHEMERIS_TYPE":"0","MEAN_ANOMALY":"280.5183","ELEMENT_SET_NO":"999","NORAD_CAT_ID":"45198","DECAY_DATE":null,"CLASSIFICATION_TYPE":"U","RCS_SIZE":"LARGE","APOAPSIS":"548.259","TLE_LINE1":"1 45198U 20012W   23004.78038778  .00003843  00000-0  27668-3 0  9999","OBJECT_TYPE":"PAYLOAD","ARG_OF_PERICENTER":"79.5981","SEMIMAJOR_AXIS":"6925.317","OBJECT_NAME":"STARLINK-1154","ECCENTRICITY":"0.00015550"},{"LAUNCH_DATE":"2020-02-17","INCLINATION":"53.0535","MEAN_ELEMENT_THEORY":"SGP4","EPOCH":"2023-01-04T18:49:07.151520","TIME_SYSTEM":"UTC","MEAN_MOTION":"15.06404629","FILE":"3732021","MEAN_MOTION_DDOT":"0.0000000000000","OBJECT_ID":"2020-012X","PERIAPSIS":"546.053","GP_ID":"222193253","CENTER_NAME":"EARTH","SITE":"AFETR","TLE_LINE2":"2 45199  53.0535 193.6485 0001655  92.5646 267.5532 15.06404629159356","COUNTRY_CODE":"US","REF_FRAME":"TEME","REV_AT_EPOCH":"15935","RA_OF_ASC_NODE":"193.6485","EPHEMERIS_TYPE":"0","BSTAR":"0.00019973000000","MEAN_ANOMALY":"267.5532","PERIOD":"95.592","MEAN_MOTION_DOT":"0.00002695","DECAY_DATE":null,"CLASSIFICATION_TYPE":"U","ELEMENT_SET_NO":"999","NORAD_CAT_ID":"45199","APOAPSIS":"548.346","TLE_LINE1":"1 45199U 20012X   23004.78411055  .00002695  00000-0  19973-3 0  9997","RCS_SIZE":"LARGE","OBJECT_NAME":"STARLINK-1197","ECCENTRICITY":"0.00016550","OBJECT_TYPE":"PAYLOAD","SEMIMAJOR_AXIS":"6925.334","ARG_OF_PERICENTER":"92.5646"},{"BSTAR":"0.00002524900000","EPHEMERIS_TYPE":"0","MEAN_ANOMALY":"271.2874","PERIOD":"95.592","MEAN_MOTION_DOT":"0.00000095","CLASSIFICATION_TYPE":"U","DECAY_DATE":null,"NORAD_CAT_ID":"45201","ELEMENT_SET_NO":"999","TLE_LINE1":"1 45201U 20012Z   23004.79145275  .00000095  00000-0  25249-4 0  9996","APOAPSIS":"548.399","RCS_SIZE":"LARGE","OBJECT_NAME":"STARLINK-1199","ECCENTRICITY":"0.00017090","OBJECT_TYPE":"PAYLOAD","ARG_OF_PERICENTER":"88.8310","SEMIMAJOR_AXIS":"6925.350","LAUNCH_DATE":"2020-02-17","MEAN_ELEMENT_THEORY":"SGP4","INCLINATION":"53.0550","EPOCH":"2023-01-04T18:59:41.517600","TIME_SYSTEM":"UTC","MEAN_MOTION":"15.06399459","MEAN_MOTION_DDOT":"0.0000000000000","FILE":"3732023","OBJECT_ID":"2020-012Z","PERIAPSIS":"546.032","CENTER_NAME":"EARTH","GP_ID":"222193260","TLE_LINE2":"2 45201  53.0550 193.6110 0001709  88.8310 271.2874 15.06399459159353","SITE":"AFETR","COUNTRY_CODE":"US","RA_OF_ASC_NODE":"193.6110","REV_AT_EPOCH":"15935","REF_FRAME":"TEME"},{"OBJECT_NAME":"STARLINK-1203","ECCENTRICITY":"0.00039090","OBJECT_TYPE":"PAYLOAD","SEMIMAJOR_AXIS":"6856.622","ARG_OF_PERICENTER":"151.5052","APOAPSIS":"481.167","TLE_LINE1":"1 45202U 20012AA  23003.93542182  .00049077  00000-0  17145-2 0  9997","RCS_SIZE":"LARGE","DECAY_DATE":null,"CLASSIFICATION_TYPE":"U","ELEMENT_SET_NO":"999","NORAD_CAT_ID":"45202","BSTAR":"0.00171450000000","EPHEMERIS_TYPE":"0","MEAN_ANOMALY":"208.6160","PERIOD":"94.173","MEAN_MOTION_DOT":"0.00049077","COUNTRY_CODE":"US","REF_FRAME":"TEME","REV_AT_EPOCH":"16034","RA_OF_ASC_NODE":"181.7379","GP_ID":"222157236","CENTER_NAME":"EARTH","SITE":"AFETR","TLE_LINE2":"2 45202  52.9629 181.7379 0003909 151.5052 208.6160 15.29105656160341","MEAN_MOTION":"15.29105656","MEAN_MOTION_DDOT":"0.0000000000000","FILE":"3731823","OBJECT_ID":"2020-012AA","PERIAPSIS":"475.806","INCLINATION":"52.9629","LAUNCH_DATE":"2020-02-17","MEAN_ELEMENT_THEORY":"SGP4","EPOCH":"2023-01-03T22:27:00.445248","TIME_SYSTEM":"UTC"},{"PERIAPSIS":"546.178","OBJECT_ID":"2020-012AC","FILE":"3731823","MEAN_MOTION_DDOT":"0.0000000000000","MEAN_MOTION":"15.06403043","TIME_SYSTEM":"UTC","MEAN_ELEMENT_THEORY":"SGP4","LAUNCH_DATE":"2020-02-17","INCLINATION":"53.0544","EPOCH":"2023-01-04T11:39:09.563904","RA_OF_ASC_NODE":"194.9844","REV_AT_EPOCH":"16026","REF_FRAME":"TEME","COUNTRY_CODE":"US","TLE_LINE2":"2 45204  53.0544 194.9844 0001482  78.0568 282.0587 15.06403043160269","SITE":"AFETR","CENTER_NAME":"EARTH","GP_ID":"222155992","NORAD_CAT_ID":"45204","ELEMENT_SET_NO":"999","CLASSIFICATION_TYPE":"U","DECAY_DATE":null,"MEAN_MOTION_DOT":"0.00000105","PERIOD":"95.592","MEAN_ANOMALY":"282.0587","BSTAR":"0.00002597300000","EPHEMERIS_TYPE":"0","ARG_OF_PERICENTER":"78.0568","SEMIMAJOR_AXIS":"6925.339","OBJECT_TYPE":"PAYLOAD","ECCENTRICITY":"0.00014820","OBJECT_NAME":"STARLINK-1206","RCS_SIZE":"LARGE","TLE_LINE1":"1 45204U 20012AC  23004.48552736  .00000105  00000-0  25973-4 0  9995","APOAPSIS":"548.231"},{"ECCENTRICITY":"0.00012390","OBJECT_NAME":"STARLINK-1208","OBJECT_TYPE":"PAYLOAD","ARG_OF_PERICENTER":"72.3120","SEMIMAJOR_AXIS":"6925.307","APOAPSIS":"548.030","TLE_LINE1":"1 45205U 20012AD  23004.77302643 -.00003580  00000-0 -22149-3 0  9991","RCS_SIZE":"LARGE","DECAY_DATE":null,"CLASSIFICATION_TYPE":"U","ELEMENT_SET_NO":"999","NORAD_CAT_ID":"45205","BSTAR":"-0.00022149000000","EPHEMERIS_TYPE":"0","MEAN_ANOMALY":"287.8004","PERIOD":"95.591","MEAN_MOTION_DOT":"-0.00003580","COUNTRY_CODE":"US","REF_FRAME":"TEME","REV_AT_EPOCH":"15936","RA_OF_ASC_NODE":"193.6819","GP_ID":"222193270","CENTER_NAME":"EARTH","SITE":"AFETR","TLE_LINE2":"2 45205  53.0544 193.6819 0001239  72.3120 287.8004 15.06413533159360","MEAN_MOTION":"15.06413533","MEAN_MOTION_DDOT":"0.0000000000000","FILE":"3732024","OBJECT_ID":"2020-012AD","PERIAPSIS":"546.314","LAUNCH_DATE":"2020-02-17","INCLINATION":"53.0544","MEAN_ELEMENT_THEORY":"SGP4","EPOCH":"2023-01-04T18:33:09.483552","TIME_SYSTEM":"UTC"}];
